{
    "links": {
        "self": "http://www.neowsapp.com/rest/v1/neo/54097870?api_key=iIulBulltgU6a56xZRHN4H3l9WmuAYTsLGpBGhQ2"
    },
    "id": "54097870",
    "neo_reference_id": "54097870",
    "name": "(2020 XJ)",
    "designation": "2020 XJ",
    "nasa_jpl_url": "http://ssd.jpl.nasa.gov/sbdb.cgi?sstr=54097870",
    "absolute_magnitude_h": 25.177,
    "estimated_diameter": {
        "kilometers": {
            "estimated_diameter_min": 0.0244993734,
            "estimated_diameter_max": 0.0547822643
        },
        "meters": {
            "estimated_diameter_min": 24.4993733824,
            "estimated_diameter_max": 54.7822642891
        },
        "miles": {
            "estimated_diameter_min": 0.0152232001,
            "estimated_diameter_max": 0.0340401103
        },
        "feet": {
            "estimated_diameter_min": 80.3785241678,
            "estimated_diameter_max": 179.7318439702
        }
    },
    "is_potentially_hazardous_asteroid": false,
    "close_approach_data": [
        {
            "close_approach_date": "2020-11-29",
            "close_approach_date_full": "2020-Nov-29 23:04",
            "epoch_date_close_approach": 1606691040000,
            "relative_velocity": {
                "kilometers_per_second": "7.8744980947",
                "kilometers_per_hour": "28348.1931410727",
                "miles_per_hour": "17614.4647881293"
            },
            "miss_distance": {
                "astronomical": "0.059061527",
                "lunar": "22.974934003",
                "kilometers": "8835478.63814749",
                "miles": "5490111.845875762"
            },
            "orbiting_body": "Earth"
        }
    ],
    "orbital_data": {
        "orbit_id": "3",
        "orbit_determination_date": "2020-12-08 05:24:05",
        "first_observation_date": "2020-12-04",
        "last_observation_date": "2020-12-08",
        "data_arc_in_days": 4,
        "observations_used": 31,
        "orbit_uncertainty": "8",
        "minimum_orbit_intersection": ".0562567",
        "jupiter_tisserand_invariant": "4.554",
        "epoch_osculation": "2459188.5",
        "eccentricity": ".3170977293638298",
        "semi_major_axis": "1.459911160366467",
        "inclination": "9.84899248472275",
        "ascending_node_longitude": "258.1282732484598",
        "orbital_period": "644.2999085759193",
        "perihelion_distance": ".9969766463413461",
        "perihelion_argument": "138.1987022919387",
        "aphelion_distance": "1.922845674391587",
        "perihelion_time": "2459156.067020195199",
        "mean_anomaly": "18.12179789926599",
        "mean_motion": ".5587460050952039",
        "equinox": "J2000",
        "orbit_class": {
            "orbit_class_type": "APO",
            "orbit_class_description": "Near-Earth asteroid orbits which cross the Earth’s orbit similar to that of 1862 Apollo",
            "orbit_class_range": "a (semi-major axis) > 1.0 AU; q (perihelion) < 1.017 AU"
        }
    },
    "is_sentry_object": false
}